GSLV R/B                
1 54149U 22138AN  26108.83068760  .00001385  00000+0  11735-3 0  9990
2 54149  87.3828 152.9155 0021731  12.8750 347.3032 14.97000704189930
XRISM                   
1 57800U 23137A   26108.45485720  .00004294  00000+0  23882-3 0  9992
2 57800  31.0033  26.3662 0007480  79.7522 280.3960 15.11936888143813
ACS3                    
1 59588U 24077B   26108.57639785  .00034435  00000+0  26546-1 0  9994
2 59588  97.1883  40.7306 0069885 355.2731   4.7766 13.91583348 99749
HTV-X1                  
1 66174U 25241A   26108.68889844  .00006371  00000+0  21015-3 0  9998
2 66174  51.6365 240.1739 0007656 327.8052  32.2461 15.32687082 27075
SZ-21 MODULE            
1 66515U 25246C   26107.99950706  .00030878  00000+0  23456-3 0  9991
2 66515  41.4740 320.8041 0004504 286.6997  73.3351 15.71618408 24259
