[
    {
        "OBJECT_NAME": "GSLV R/B",
        "OBJECT_ID": "2022-138AN",
        "EPOCH": "2026-04-18T19:56:11.408640",
        "MEAN_MOTION": 14.97000704,
        "ECCENTRICITY": 0.0021731,
        "INCLINATION": 87.3828,
        "RA_OF_ASC_NODE": 152.9155,
        "ARG_OF_PERICENTER": 12.875,
        "MEAN_ANOMALY": 347.3032,
        "EPHEMERIS_TYPE": 0,
        "CLASSIFICATION_TYPE": "U",
        "NORAD_CAT_ID": 54149,
        "ELEMENT_SET_NO": 999,
        "REV_AT_EPOCH": 18993,
        "BSTAR": 0.00011735,
        "MEAN_MOTION_DOT": 1.385e-05,
        "MEAN_MOTION_DDOT": 0
    },
    {
        "OBJECT_NAME": "XRISM",
        "OBJECT_ID": "2023-137A",
        "EPOCH": "2026-04-18T10:54:59.662080",
        "MEAN_MOTION": 15.11936888,
        "ECCENTRICITY": 0.00074804,
        "INCLINATION": 31.0033,
        "RA_OF_ASC_NODE": 26.3662,
        "ARG_OF_PERICENTER": 79.7522,
        "MEAN_ANOMALY": 280.396,
        "EPHEMERIS_TYPE": 0,
        "CLASSIFICATION_TYPE": "U",
        "NORAD_CAT_ID": 57800,
        "ELEMENT_SET_NO": 999,
        "REV_AT_EPOCH": 14381,
        "BSTAR": 0.00023882089,
        "MEAN_MOTION_DOT": 4.294e-05,
        "MEAN_MOTION_DDOT": 0
    },
    {
        "OBJECT_NAME": "ACS3",
        "OBJECT_ID": "2024-077B",
        "EPOCH": "2026-04-18T13:50:00.774240",
        "MEAN_MOTION": 13.91583348,
        "ECCENTRICITY": 0.0069885,
        "INCLINATION": 97.1883,
        "RA_OF_ASC_NODE": 40.7306,
        "ARG_OF_PERICENTER": 355.2731,
        "MEAN_ANOMALY": 4.7766,
        "EPHEMERIS_TYPE": 0,
        "CLASSIFICATION_TYPE": "U",
        "NORAD_CAT_ID": 59588,
        "ELEMENT_SET_NO": 999,
        "REV_AT_EPOCH": 9974,
        "BSTAR": 0.026546,
        "MEAN_MOTION_DOT": 0.00034435,
        "MEAN_MOTION_DDOT": 0
    },
    {
        "OBJECT_NAME": "HTV-X1",
        "OBJECT_ID": "2025-241A",
        "EPOCH": "2026-04-18T16:32:00.825216",
        "MEAN_MOTION": 15.32687082,
        "ECCENTRICITY": 0.0007656,
        "INCLINATION": 51.6365,
        "RA_OF_ASC_NODE": 240.1739,
        "ARG_OF_PERICENTER": 327.8052,
        "MEAN_ANOMALY": 32.2461,
        "EPHEMERIS_TYPE": 0,
        "CLASSIFICATION_TYPE": "U",
        "NORAD_CAT_ID": 66174,
        "ELEMENT_SET_NO": 999,
        "REV_AT_EPOCH": 2707,
        "BSTAR": 0.00021015,
        "MEAN_MOTION_DOT": 6.371e-05,
        "MEAN_MOTION_DDOT": 0
    },
    {
        "OBJECT_NAME": "SZ-21 MODULE",
        "OBJECT_ID": "2025-246C",
        "EPOCH": "2026-04-17T23:59:17.409984",
        "MEAN_MOTION": 15.71618408,
        "ECCENTRICITY": 0.00045046,
        "INCLINATION": 41.474,
        "RA_OF_ASC_NODE": 320.8041,
        "ARG_OF_PERICENTER": 286.6997,
        "MEAN_ANOMALY": 73.3351,
        "EPHEMERIS_TYPE": 0,
        "CLASSIFICATION_TYPE": "U",
        "NORAD_CAT_ID": 66515,
        "ELEMENT_SET_NO": 999,
        "REV_AT_EPOCH": 2425,
        "BSTAR": 0.00023455966,
        "MEAN_MOTION_DOT": 0.00030878,
        "MEAN_MOTION_DDOT": 0
    }
]